$$SOE
2461295.500000000, A.D. 2026-Sep-12 00:00:00.0000, -2.315534181641323E+07, -4.943451030061101E+08, 2.161769772699033E+08,
2461302.500000000, A.D. 2026-Sep-19 00:00:00.0000, -1.515778377369714E+07, -4.937107016411360E+08, 2.139447262788330E+08,
2461309.500000000, A.D. 2026-Sep-26 00:00:00.0000, -7.155493714334379E+06, -4.929226580677726E+08, 2.116458815909772E+08,
2461316.500000000, A.D. 2026-Oct-03 00:00:00.0000, 8.490589741720960E+05, -4.919796703742232E+08, 2.092804937035656E+08,
2461323.500000000, A.D. 2026-Oct-10 00:00:00.0000, 8.853354206950000E+06, -4.908804316418172E+08, 2.068486234120973E+08,
2461330.500000000, A.D. 2026-Oct-17 00:00:00.0000, 1.685481900658707E+07, -4.896236303164728E+08, 2.043503425300014E+08,
2461337.500000000, A.D. 2026-Oct-24 00:00:00.0000, 2.485082522522308E+07, -4.882079507401864E+08, 2.017857346455028E+08,
2461344.500000000, A.D. 2026-Oct-31 00:00:00.0000, 3.283868728053387E+07, -4.866320739141442E+08, 1.991548959039806E+08,
2461351.500000000, A.D. 2026-Nov-07 00:00:00.0000, 4.081566024241040E+07, -4.848946784248498E+08, 1.964579357939360E+08,
2461358.500000000, A.D. 2026-Nov-14 00:00:00.0000, 4.877893846877255E+07, -4.829944406518233E+08, 1.936949779940858E+08,
2461365.500000000, A.D. 2026-Nov-21 00:00:00.0000, 5.672565297613302E+07, -4.809300335811780E+08, 1.908661615068563E+08,
2461372.500000000, A.D. 2026-Nov-28 00:00:00.0000, 6.465286654447532E+07, -4.787001272393143E+08, 1.879716419271624E+08,
2461379.500000000, A.D. 2026-Dec-05 00:00:00.0000, 7.255757017430766E+07, -4.763033914100069E+08, 1.850115924644676E+08,
2461386.500000000, A.D. 2026-Dec-12 00:00:00.0000, 8.043668105916186E+07, -4.737384975320714E+08, 1.819862049616565E+08,
2461393.500000000, A.D. 2026-Dec-19 00:00:00.0000, 8.828704018434367E+07, -4.710041197799369E+08, 1.788956910889342E+08,
2461400.500000000, A.D. 2026-Dec-26 00:00:00.0000, 9.610540940764651E+07, -4.680989362043519E+08, 1.757402836594335E+08,
2461407.500000000, A.D. 2027-Jan-02 00:00:00.0000, 1.038884682959957E+08, -4.650216301340093E+08, 1.725202380302832E+08,
2461414.500000000, A.D. 2027-Jan-09 00:00:00.0000, 1.116328108330334E+08, -4.617708918285324E+08, 1.692358335848387E+08,
2461421.500000000, A.D. 2027-Jan-16 00:00:00.0000, 1.193349420310399E+08, -4.583454203853781E+08, 1.658873752984852E+08,
2461428.500000000, A.D. 2027-Jan-23 00:00:00.0000, 1.269912744914755E+08, -4.547439259525236E+08, 1.624751953857661E+08,
2461435.500000000, A.D. 2027-Jan-30 00:00:00.0000, 1.345981251005751E+08, -4.509651323080728E+08, 1.589996550133941E+08,
2461442.500000000, A.D. 2027-Feb-06 00:00:00.0000, 1.421517122838389E+08, -4.470077794813937E+08, 1.554611460741525E+08,
2461449.500000000, A.D. 2027-Feb-13 00:00:00.0000, 1.496481533585513E+08, -4.428706252119701E+08, 1.518600931700574E+08,
2461456.500000000, A.D. 2027-Feb-20 00:00:00.0000, 1.570834596204493E+08, -4.385524460534412E+08, 1.481969559632267E+08,
2461463.500000000, A.D. 2027-Feb-27 00:00:00.0000, 1.644535305619935E+08, -4.340520413533623E+08, 1.444722315098958E+08,
2461470.500000000, A.D. 2027-Mar-06 00:00:00.0000, 1.717541502439779E+08, -4.293682382046421E+08, 1.406864564647788E+08,
2461477.500000000, A.D. 2027-Mar-13 00:00:00.0000, 1.789809842250867E+08, -4.244998953399329E+08, 1.368402094777964E+08,
2461484.500000000, A.D. 2027-Mar-20 00:00:00.0000, 1.861295759256879E+08, -4.194459068257643E+08, 1.329341138265091E+08,
2461491.500000000, A.D. 2027-Mar-27 00:00:00.0000, 1.931953426347241E+08, -4.142052061287587E+08, 1.289688402288607E+08,
2461498.500000000, A.D. 2027-Apr-03 00:00:00.0000, 2.001735713707196E+08, -4.087767706263083E+08, 1.249451098216797E+08,
2461505.500000000, A.D. 2027-Apr-10 00:00:00.0000, 2.070594146677669E+08, -4.031596265642871E+08, 1.208636973089278E+08,
2461512.500000000, A.D. 2027-Apr-17 00:00:00.0000, 2.138478863204135E+08, -3.973528545024633E+08, 1.167254342839523E+08,
2461519.500000000, A.D. 2027-Apr-24 00:00:00.0000, 2.205338571818148E+08, -3.913555953371452E+08, 1.125312127210023E+08,
2461526.500000000, A.D. 2027-May-01 00:00:00.0000, 2.271120513339249E+08, -3.851670569027776E+08, 1.082819886193326E+08,
2461533.500000000, A.D. 2027-May-08 00:00:00.0000, 2.335770429598561E+08, -3.787865204369847E+08, 1.039787858425777E+08,
2461540.500000000, A.D. 2027-May-15 00:00:00.0000, 2.399232524467381E+08, -3.722133459917277E+08, 9.962270037870111E+07,
2461547.500000000, A.D. 2027-May-22 00:00:00.0000, 2.461449401826162E+08, -3.654469794195087E+08, 9.521490496126965E+07,
2461554.500000000, A.D. 2027-May-29 00:00:00.0000, 2.522362014347297E+08, -3.584869624404344E+08, 9.075665363229623E+07,
2461561.500000000, A.D. 2027-Jun-05 00:00:00.0000, 2.581909632309270E+08, -3.513329426977211E+08, 8.624928642929241E+07,
2461568.500000000, A.D. 2027-Jun-12 00:00:00.0000, 2.640029812787712E+08, -3.439846834111142E+08, 8.169423442329811E+07,
2461575.500000000, A.D. 2027-Jun-19 00:00:00.0000, 2.696658366388919E+08, -3.364420736053973E+08, 7.709302506812094E+07,
2461582.500000000, A.D. 2027-Jun-26 00:00:00.0000, 2.751729324860609E+08, -3.287051392182364E+08, 7.244728781891532E+07,
2461589.500000000, A.D. 2027-Jul-03 00:00:00.0000, 2.805174911512925E+08, -3.207740551227655E+08, 6.775876001243263E+07,
2461596.500000000, A.D. 2027-Jul-10 00:00:00.0000, 2.856925515505153E+08, -3.126491581003507E+08, 6.302929300827697E+07,
2461603.500000000, A.D. 2027-Jul-17 00:00:00.0000, 2.906909671128445E+08, -3.043309608461646E+08, 5.826085858429833E+07,
2461610.500000000, A.D. 2027-Jul-24 00:00:00.0000, 2.955054044505836E+08, -2.958201671126802E+08, 5.345555556346541E+07,
2461617.500000000, A.D. 2027-Jul-31 00:00:00.0000, 3.001283432787453E+08, -2.871176877961923E+08, 4.861561664768187E+07,
2461624.500000000, A.D. 2027-Aug-07 00:00:00.0000, 3.045520774909704E+08, -2.782246568541904E+08, 4.374341556180334E+07,
2461631.500000000, A.D. 2027-Aug-14 00:00:00.0000, 3.087687152082253E+08, -2.691424473437576E+08, 3.884147468421020E+07,
2461638.500000000, A.D. 2027-Aug-21 00:00:00.0000, 3.127701785457601E+08, -2.598726909746262E+08, 3.391247281215034E+07,
2461645.500000000, A.D. 2027-Aug-28 00:00:00.0000, 3.165482066702673E+08, -2.504172999940023E+08, 2.895925281950478E+07,
2461652.500000000, A.D. 2027-Sep-04 00:00:00.0000, 3.200943611228828E+08, -2.407784889138176E+08, 2.398482948803951E+07,
2461659.500000000, A.D. 2027-Sep-11 00:00:00.0000, 3.234000321842860E+08, -2.309587967458818E+08, 1.899239754704730E+07,
2461666.500000000, A.D. 2027-Sep-18 00:00:00.0000, 3.264564466009110E+08, -2.209611103874086E+08, 1.398533980822735E+07,
2461673.500000000, A.D. 2027-Sep-25 00:00:00.0000, 3.292546771011028E+08, -2.107886892122819E+08, 8.967235310605586E+06,
2461680.500000000, A.D. 2027-Oct-02 00:00:00.0000, 3.317856539897832E+08, -2.004451908006706E+08, 3.941867401621580E+06,
2461687.500000000, A.D. 2027-Oct-09 00:00:00.0000, 3.340401790700292E+08, -1.899346977505632E+08, -1.086768329985112E+06,
2461694.500000000, A.D. 2027-Oct-16 00:00:00.0000, 3.360089421911355E+08, -1.792617455397847E+08, -6.114456375685133E+06,
2461701.500000000, A.D. 2027-Oct-23 00:00:00.0000, 3.376825409280391E+08, -1.684313513269491E+08, -1.113675401827205E+07,
2461708.500000000, A.D. 2027-Oct-30 00:00:00.0000, 3.390515040210770E+08, -1.574490429283793E+08, -1.614898454353353E+07,
2461715.500000000, A.D. 2027-Nov-06 00:00:00.0000, 3.401063176755852E+08, -1.463208866546324E+08, -2.114623089675732E+07,
2461722.500000000, A.D. 2027-Nov-13 00:00:00.0000, 3.408374529980614E+08, -1.350535158557978E+08, -2.612332993347038E+07,
2461729.500000000, A.D. 2027-Nov-20 00:00:00.0000, 3.412353977228884E+08, -1.236541620847733E+08, -3.107486789012805E+07,
2461736.500000000, A.D. 2027-Nov-27 00:00:00.0000, 3.412906940888866E+08, -1.121306855830434E+08, -3.599517718048881E+07,
2461743.500000000, A.D. 2027-Dec-04 00:00:00.0000, 3.409939810679110E+08, -1.004916037903558E+08, -4.087833447614127E+07,
2461750.500000000, A.D. 2027-Dec-11 00:00:00.0000, 3.403360405917282E+08, -8.874611840079388E+07, -4.571816033699161E+07,
2461757.500000000, A.D. 2027-Dec-18 00:00:00.0000, 3.393078482065706E+08, -7.690414080212004E+07, -5.050822069905803E+07,
2461764.500000000, A.D. 2027-Dec-25 00:00:00.0000, 3.379006284057223E+08, -6.497631533436871E+07, -5.524183050158433E+07,
2461771.500000000, A.D. 2028-Jan-01 00:00:00.0000, 3.361059147113627E+08, -5.297403972017969E+07, -5.991205973300600E+07,
$$EOE